{
  "type": "FeatureCollection",
  "features": [
    {
      "type": "Feature",
      "properties": {
        "norad_id": 41948,
        "name": "CARTOSAT-2D",
        "group": "resource",
        "lat": 43.091202977977595,
        "lon": 46.201758954993906,
        "alt_km": 504.3745355008159,
        "timestamp": "2025-12-21T20:41:07.643171+00:00",
        "meta_object_name": "CARTOSAT-2D",
        "meta_object_id": "2017-008A",
        "meta_epoch": "2025-12-21T14:10:18.433632",
        "meta_mean_motion": 15.19339894,
        "meta_eccentricity": 0.00053187,
        "meta_inclination": 97.4376,
        "meta_ra_of_asc_node": 52.9541,
        "meta_arg_of_pericenter": 135.5673,
        "meta_mean_anomaly": 224.5989,
        "meta_ephemeris_type": 0,
        "meta_classification_type": "U",
        "meta_norad_cat_id": 41948,
        "meta_element_set_no": 999,
        "meta_rev_at_epoch": 49061,
        "meta_bstar": 0.00026624184,
        "meta_mean_motion_dot": 5.56e-05,
        "meta_mean_motion_ddot": 0,
        "tle_line1": "1 41948U 17008A   25355.59049113  .00005560  00000+0  26624-3 0  9992",
        "tle_line2": "2 41948  97.4376  52.9541 0005318 135.5673 224.5989 15.19339894490618"
      },
      "geometry": {
        "type": "Point",
        "coordinates": [
          46.201758954993906,
          43.091202977977595
        ]
      }
    },
    {
      "type": "Feature",
      "properties": {
        "norad_id": 42063,
        "name": "SENTINEL-2B",
        "group": "resource",
        "lat": -14.975128470227263,
        "lon": 70.49227199245331,
        "alt_km": 793.9108458561359,
        "timestamp": "2025-12-21T20:41:07.643180+00:00",
        "meta_object_name": "SENTINEL-2B",
        "meta_object_id": "2017-013A",
        "meta_epoch": "2025-12-21T14:02:34.032768",
        "meta_mean_motion": 14.30814856,
        "meta_eccentricity": 0.0001207,
        "meta_inclination": 98.5712,
        "meta_ra_of_asc_node": 67.9074,
        "meta_arg_of_pericenter": 91.9552,
        "meta_mean_anomaly": 268.1769,
        "meta_ephemeris_type": 0,
        "meta_classification_type": "U",
        "meta_norad_cat_id": 42063,
        "meta_element_set_no": 999,
        "meta_rev_at_epoch": 45924,
        "meta_bstar": 0.00015172133,
        "meta_mean_motion_dot": 3.54e-06,
        "meta_mean_motion_ddot": 0,
        "tle_line1": "1 42063U 17013A   25355.58511612  .00000354  00000+0  15172-3 0  9996",
        "tle_line2": "2 42063  98.5712  67.9074 0001207  91.9552 268.1769 14.30814856459246"
      },
      "geometry": {
        "type": "Point",
        "coordinates": [
          70.49227199245331,
          -14.975128470227263
        ]
      }
    },
    {
      "type": "Feature",
      "properties": {
        "norad_id": 42767,
        "name": "CARTOSAT-2E",
        "group": "resource",
        "lat": -46.9853111359229,
        "lon": 61.39730242000988,
        "alt_km": 515.7325077349815,
        "timestamp": "2025-12-21T20:41:07.643189+00:00",
        "meta_object_name": "CARTOSAT-2E",
        "meta_object_id": "2017-036C",
        "meta_epoch": "2025-12-21T14:34:17.399712",
        "meta_mean_motion": 15.19281354,
        "meta_eccentricity": 0.00025629,
        "meta_inclination": 97.4545,
        "meta_ra_of_asc_node": 53.0784,
        "meta_arg_of_pericenter": 193.6534,
        "meta_mean_anomaly": 166.4632,
        "meta_ephemeris_type": 0,
        "meta_classification_type": "U",
        "meta_norad_cat_id": 42767,
        "meta_element_set_no": 999,
        "meta_rev_at_epoch": 47118,
        "meta_bstar": 0.00027459871,
        "meta_mean_motion_dot": 5.726e-05,
        "meta_mean_motion_ddot": 0,
        "tle_line1": "1 42767U 17036C   25355.60714583  .00005726  00000+0  27460-3 0  9998",
        "tle_line2": "2 42767  97.4545  53.0784 0002562 193.6534 166.4632 15.19281354471183"
      },
      "geometry": {
        "type": "Point",
        "coordinates": [
          61.39730242000988,
          -46.9853111359229
        ]
      }
    },
    {
      "type": "Feature",
      "properties": {
        "norad_id": 42920,
        "name": "FORMOSAT-5",
        "group": "resource",
        "lat": -73.62830178729894,
        "lon": 99.56985651292297,
        "alt_km": 723.6681054075761,
        "timestamp": "2025-12-21T20:41:07.643198+00:00",
        "meta_object_name": "FORMOSAT-5",
        "meta_object_id": "2017-049A",
        "meta_epoch": "2025-12-21T11:06:08.641728",
        "meta_mean_motion": 14.50765229,
        "meta_eccentricity": 0.00098277,
        "meta_inclination": 98.2443,
        "meta_ra_of_asc_node": 69.6064,
        "meta_arg_of_pericenter": 271.8294,
        "meta_mean_anomaly": 88.1775,
        "meta_ephemeris_type": 0,
        "meta_classification_type": "U",
        "meta_norad_cat_id": 42920,
        "meta_element_set_no": 999,
        "meta_rev_at_epoch": 44090,
        "meta_bstar": 5.3866767e-05,
        "meta_mean_motion_dot": 1.68e-06,
        "meta_mean_motion_ddot": 0,
        "tle_line1": "1 42920U 17049A   25355.46260002  .00000168  00000+0  53867-4 0  9995",
        "tle_line2": "2 42920  98.2443  69.6064 0009827 271.8294  88.1775 14.50765229440903"
      },
      "geometry": {
        "type": "Point",
        "coordinates": [
          99.56985651292297,
          -73.62830178729894
        ]
      }
    },
    {
      "type": "Feature",
      "properties": {
        "norad_id": 42969,
        "name": "SENTINEL-5P",
        "group": "resource",
        "lat": 11.95145293109145,
        "lon": -67.50915735770093,
        "alt_km": 828.057263421415,
        "timestamp": "2025-12-21T20:41:07.643208+00:00",
        "meta_object_name": "SENTINEL-5P",
        "meta_object_id": "2017-064A",
        "meta_epoch": "2025-12-21T13:51:43.162560",
        "meta_mean_motion": 14.19519508,
        "meta_eccentricity": 0.00010238,
        "meta_inclination": 98.7798,
        "meta_ra_of_asc_node": 294.0837,
        "meta_arg_of_pericenter": 91.1103,
        "meta_mean_anomaly": 269.0191,
        "meta_ephemeris_type": 0,
        "meta_classification_type": "U",
        "meta_norad_cat_id": 42969,
        "meta_element_set_no": 999,
        "meta_rev_at_epoch": 42436,
        "meta_bstar": 4.8834984e-05,
        "meta_mean_motion_dot": 5.9e-07,
        "meta_mean_motion_ddot": 0,
        "tle_line1": "1 42969U 17064A   25355.57758290  .00000059  00000+0  48835-4 0  9996",
        "tle_line2": "2 42969  98.7798 294.0837 0001023  91.1103 269.0191 14.19519508424364"
      },
      "geometry": {
        "type": "Point",
        "coordinates": [
          -67.50915735770093,
          11.95145293109145
        ]
      }
    },
    {
      "type": "Feature",
      "properties": {
        "norad_id": 42987,
        "name": "SKYSAT-C11",
        "group": "resource",
        "lat": 5.972667690638979,
        "lon": 132.801035035615,
        "alt_km": 425.4849595341584,
        "timestamp": "2025-12-21T20:41:07.643217+00:00",
        "meta_object_name": "SKYSAT-C11",
        "meta_object_id": "2017-068A",
        "meta_epoch": "2025-12-21T08:14:47.895360",
        "meta_mean_motion": 15.47785613,
        "meta_eccentricity": 0.0001167,
        "meta_inclination": 97.4149,
        "meta_ra_of_asc_node": 133.0504,
        "meta_arg_of_pericenter": 99.4516,
        "meta_mean_anomaly": 260.6866,
        "meta_ephemeris_type": 0,
        "meta_classification_type": "U",
        "meta_norad_cat_id": 42987,
        "meta_element_set_no": 999,
        "meta_rev_at_epoch": 45564,
        "meta_bstar": 0.00034865438,
        "meta_mean_motion_dot": 0.00018009,
        "meta_mean_motion_ddot": 0,
        "tle_line1": "1 42987U 17068A   25355.34360990  .00018009  00000+0  34865-3 0  9992",
        "tle_line2": "2 42987  97.4149 133.0504 0001167  99.4516 260.6866 15.47785613455646"
      },
      "geometry": {
        "type": "Point",
        "coordinates": [
          132.801035035615,
          5.972667690638979
        ]
      }
    },
    {
      "type": "Feature",
      "properties": {
        "norad_id": 42988,
        "name": "SKYSAT-C10",
        "group": "resource",
        "lat": -60.10943194932586,
        "lon": 139.85589438973955,
        "alt_km": 479.11268068922254,
        "timestamp": "2025-12-21T20:41:07.643226+00:00",
        "meta_object_name": "SKYSAT-C10",
        "meta_object_id": "2017-068B",
        "meta_epoch": "2025-12-21T14:40:54.607296",
        "meta_mean_motion": 15.32236176,
        "meta_eccentricity": 0.00053877,
        "meta_inclination": 97.4268,
        "meta_ra_of_asc_node": 126.4882,
        "meta_arg_of_pericenter": 79.429,
        "meta_mean_anomaly": 280.7558,
        "meta_ephemeris_type": 0,
        "meta_classification_type": "U",
        "meta_norad_cat_id": 42988,
        "meta_element_set_no": 999,
        "meta_rev_at_epoch": 45515,
        "meta_bstar": 0.00028964294,
        "meta_mean_motion_dot": 8.941e-05,
        "meta_mean_motion_ddot": 0,
        "tle_line1": "1 42988U 17068B   25355.61174314  .00008941  00000+0  28964-3 0  9993",
        "tle_line2": "2 42988  97.4268 126.4882 0005387  79.4290 280.7558 15.32236176455155"
      },
      "geometry": {
        "type": "Point",
        "coordinates": [
          139.85589438973955,
          -60.10943194932586
        ]
      }
    }
  ]
}